[{"OBJECT_NAME":"STARLINK-6043","OBJECT_ID":"2023-064S","EPOCH":"2026-03-09T14:14:21.369696","MEAN_MOTION":14.98324758,"ECCENTRICITY":0.000321,"INCLINATION":70.0007,"RA_OF_ASC_NODE":144.6208,"ARG_OF_PERICENTER":270.9566,"MEAN_ANOMALY":89.1225,"EPHEMERIS_TYPE":0,"CLASSIFICATION_TYPE":"U","NORAD_CAT_ID":56464,"ELEMENT_SET_NO":999,"REV_AT_EPOCH":15523,"BSTAR":-4.9377e-5,"MEAN_MOTION_DOT":-6.82e-6,"MEAN_MOTION_DDOT":0},{"OBJECT_NAME":"EZIE-B","OBJECT_ID":"2025-052AS","EPOCH":"2026-03-09T23:09:37.705536","MEAN_MOTION":14.96286279,"ECCENTRICITY":0.00040038,"INCLINATION":97.7009,"RA_OF_ASC_NODE":322.7783,"ARG_OF_PERICENTER":146.8572,"MEAN_ANOMALY":213.2901,"EPHEMERIS_TYPE":0,"CLASSIFICATION_TYPE":"U","NORAD_CAT_ID":63250,"ELEMENT_SET_NO":999,"REV_AT_EPOCH":5382,"BSTAR":0.00063815223,"MEAN_MOTION_DOT":7.158e-5,"MEAN_MOTION_DDOT":0}]
